start=new Date('2023-02-01T00:00:00.000Z').valueOf();
sats=[{"OBJECT_NAME":"STARLINK-3248","BSTAR":"0.00002078600000","EPHEMERIS_TYPE":"0","PERIOD":"95.438","MEAN_MOTION_DOT":"0.00000043","MEAN_MOTION_DDOT":"0.0000000000000","MEAN_MOTION":"15.08834201","GP_ID":"224096458","MEAN_ELEMENT_THEORY":"SGP4","EPOCH":"2023-01-31T11:37:09.936192","FILE":"3766475","RCS_SIZE":"LARGE","ELEMENT_SET_NO":"999","CLASSIFICATION_TYPE":"U","REV_AT_EPOCH":"6446","TLE_LINE2":"2 49748  53.2142 196.2860 0001309  98.1494 261.9647 15.08834201 64468","TLE_LINE1":"1 49748U 21115AA  23031.48414278  .00000043  00000-0  20786-4 0  9993","PERIAPSIS":"538.858","SEMIMAJOR_AXIS":"6917.898","NORAD_CAT_ID":"49748","REF_FRAME":"TEME","MEAN_ANOMALY":"261.9647","TIME_SYSTEM":"UTC","SITE":"AFETR","DECAY_DATE":null,"APOAPSIS":"540.669","RA_OF_ASC_NODE":"196.2860","COUNTRY_CODE":"US","ARG_OF_PERICENTER":"98.1494","ECCENTRICITY":"0.00013090","INCLINATION":"53.2142","OBJECT_TYPE":"PAYLOAD","LAUNCH_DATE":"2021-12-02","OBJECT_ID":"2021-115AA","CENTER_NAME":"EARTH"},{"SEMIMAJOR_AXIS":"6917.884","REF_FRAME":"TEME","NORAD_CAT_ID":"49749","MEAN_ANOMALY":"259.4894","TIME_SYSTEM":"UTC","SITE":"AFETR","DECAY_DATE":null,"APOAPSIS":"540.632","RA_OF_ASC_NODE":"196.3238","ARG_OF_PERICENTER":"100.6242","COUNTRY_CODE":"US","INCLINATION":"53.2161","ECCENTRICITY":"0.00012760","OBJECT_TYPE":"PAYLOAD","OBJECT_ID":"2021-115AB","LAUNCH_DATE":"2021-12-02","CENTER_NAME":"EARTH","BSTAR":"0.00003632500000","OBJECT_NAME":"STARLINK-3250","PERIOD":"95.438","EPHEMERIS_TYPE":"0","MEAN_MOTION_DOT":"0.00000290","MEAN_MOTION":"15.08838678","MEAN_MOTION_DDOT":"0.0000000000000","GP_ID":"224097202","MEAN_ELEMENT_THEORY":"SGP4","EPOCH":"2023-01-31T11:21:15.817536","FILE":"3766475","ELEMENT_SET_NO":"999","RCS_SIZE":"LARGE","CLASSIFICATION_TYPE":"U","TLE_LINE2":"2 49749  53.2161 196.3238 0001276 100.6242 259.4894 15.08838678 64450","REV_AT_EPOCH":"6445","PERIAPSIS":"538.867","TLE_LINE1":"1 49749U 21115AB  23031.47309974  .00000290  00000-0  36325-4 0  9999"},{"MEAN_MOTION":"15.08839836","MEAN_MOTION_DDOT":"0.0000000000000","MEAN_MOTION_DOT":"0.00000786","PERIOD":"95.438","EPHEMERIS_TYPE":"0","BSTAR":"0.00006747100000","OBJECT_NAME":"STARLINK-3236","PERIAPSIS":"538.989","TLE_LINE1":"1 49750U 21115AC  23031.55774034  .00000786  00000-0  67471-4 0  9999","TLE_LINE2":"2 49750  53.2152 195.9473 0001094  88.7814 271.3303 15.08839836 64474","REV_AT_EPOCH":"6447","CLASSIFICATION_TYPE":"U","ELEMENT_SET_NO":"999","RCS_SIZE":"LARGE","FILE":"3766475","EPOCH":"2023-01-31T13:23:08.765376","MEAN_ELEMENT_THEORY":"SGP4","GP_ID":"224095459","APOAPSIS":"540.503","DECAY_DATE":null,"SITE":"AFETR","TIME_SYSTEM":"UTC","MEAN_ANOMALY":"271.3303","REF_FRAME":"TEME","NORAD_CAT_ID":"49750","SEMIMAJOR_AXIS":"6917.881","CENTER_NAME":"EARTH","OBJECT_ID":"2021-115AC","LAUNCH_DATE":"2021-12-02","OBJECT_TYPE":"PAYLOAD","INCLINATION":"53.2152","ECCENTRICITY":"0.00010940","ARG_OF_PERICENTER":"88.7814","COUNTRY_CODE":"US","RA_OF_ASC_NODE":"195.9473"},{"DECAY_DATE":null,"SITE":"AFETR","APOAPSIS":"540.462","REF_FRAME":"TEME","NORAD_CAT_ID":"49751","SEMIMAJOR_AXIS":"6917.870","TIME_SYSTEM":"UTC","MEAN_ANOMALY":"284.0678","OBJECT_TYPE":"PAYLOAD","CENTER_NAME":"EARTH","OBJECT_ID":"2021-115AD","LAUNCH_DATE":"2021-12-02","ARG_OF_PERICENTER":"76.0431","COUNTRY_CODE":"US","RA_OF_ASC_NODE":"194.5110","INCLINATION":"53.2158","ECCENTRICITY":"0.00010510","MEAN_MOTION":"15.08843490","MEAN_MOTION_DDOT":"0.0000000000000","BSTAR":"0.00011608000000","OBJECT_NAME":"STARLINK-3229","MEAN_MOTION_DOT":"0.00001560","PERIOD":"95.437","EPHEMERIS_TYPE":"0","CLASSIFICATION_TYPE":"U","ELEMENT_SET_NO":"999","RCS_SIZE":"LARGE","PERIAPSIS":"539.008","TLE_LINE1":"1 49751U 21115AD  23031.87790723  .00001560  00000-0  11608-3 0  9999","TLE_LINE2":"2 49751  53.2158 194.5110 0001051  76.0431 284.0678 15.08843490 64525","REV_AT_EPOCH":"6452","MEAN_ELEMENT_THEORY":"SGP4","GP_ID":"224126564","FILE":"3766747","EPOCH":"2023-01-31T21:04:11.184672"},{"APOAPSIS":"540.612","DECAY_DATE":null,"SITE":"AFETR","TIME_SYSTEM":"UTC","MEAN_ANOMALY":"273.7685","NORAD_CAT_ID":"49752","REF_FRAME":"TEME","SEMIMAJOR_AXIS":"6917.888","CENTER_NAME":"EARTH","OBJECT_ID":"2021-115AE","LAUNCH_DATE":"2021-12-02","OBJECT_TYPE":"PAYLOAD","INCLINATION":"53.2136","ECCENTRICITY":"0.00012430","ARG_OF_PERICENTER":"86.3449","COUNTRY_CODE":"US","RA_OF_ASC_NODE":"186.4807","MEAN_MOTION":"15.08837666","MEAN_MOTION_DDOT":"0.0000000000000","MEAN_MOTION_DOT":"0.00000348","PERIOD":"95.438","EPHEMERIS_TYPE":"0","BSTAR":"0.00003995000000","OBJECT_NAME":"STARLINK-3209","PERIAPSIS":"538.893","TLE_LINE1":"1 49752U 21115AE  23031.44089869  .00000348  00000-0  39950-4 0  9999","TLE_LINE2":"2 49752  53.2136 186.4807 0001243  86.3449 273.7685 15.08837666 64599","REV_AT_EPOCH":"6459","CLASSIFICATION_TYPE":"U","ELEMENT_SET_NO":"999","RCS_SIZE":"LARGE","FILE":"3766475","EPOCH":"2023-01-31T10:34:53.646816","MEAN_ELEMENT_THEORY":"SGP4","GP_ID":"224096959"},{"CENTER_NAME":"EARTH","OBJECT_ID":"2021-115AF","LAUNCH_DATE":"2021-12-02","OBJECT_TYPE":"PAYLOAD","INCLINATION":"53.2140","ECCENTRICITY":"0.00012220","ARG_OF_PERICENTER":"87.8591","COUNTRY_CODE":"US","RA_OF_ASC_NODE":"195.9726","APOAPSIS":"540.605","DECAY_DATE":null,"SITE":"AFETR","TIME_SYSTEM":"UTC","MEAN_ANOMALY":"272.2541","NORAD_CAT_ID":"49753","REF_FRAME":"TEME","SEMIMAJOR_AXIS":"6917.895","PERIAPSIS":"538.914","TLE_LINE1":"1 49753U 21115AF  23031.55406197  .00000267  00000-0  34861-4 0  9995","TLE_LINE2":"2 49753  53.2140 195.9726 0001222  87.8591 272.2541 15.08835383 64477","REV_AT_EPOCH":"6447","CLASSIFICATION_TYPE":"U","ELEMENT_SET_NO":"999","RCS_SIZE":"LARGE","FILE":"3766475","EPOCH":"2023-01-31T13:17:50.954208","MEAN_ELEMENT_THEORY":"SGP4","GP_ID":"224096702","MEAN_MOTION":"15.08835383","MEAN_MOTION_DDOT":"0.0000000000000","MEAN_MOTION_DOT":"0.00000267","PERIOD":"95.438","EPHEMERIS_TYPE":"0","BSTAR":"0.00003486100000","OBJECT_NAME":"STARLINK-3200"},{"SITE":"AFETR","DECAY_DATE":null,"APOAPSIS":"540.683","SEMIMAJOR_AXIS":"6917.910","REF_FRAME":"TEME","NORAD_CAT_ID":"49754","MEAN_ANOMALY":"282.4584","TIME_SYSTEM":"UTC","OBJECT_TYPE":"PAYLOAD","LAUNCH_DATE":"2021-12-02","OBJECT_ID":"2021-115AG","CENTER_NAME":"EARTH","RA_OF_ASC_NODE":"186.4989","COUNTRY_CODE":"US","ARG_OF_PERICENTER":"77.6554","ECCENTRICITY":"0.00013120","INCLINATION":"53.2175","MEAN_MOTION_DDOT":"0.0000000000000","MEAN_MOTION":"15.08830269","OBJECT_NAME":"STARLINK-3193","BSTAR":"0.00012693000000","EPHEMERIS_TYPE":"0","PERIOD":"95.438","MEAN_MOTION_DOT":"0.00001732","RCS_SIZE":"LARGE","ELEMENT_SET_NO":"999","CLASSIFICATION_TYPE":"U","REV_AT_EPOCH":"6459","TLE_LINE2":"2 49754  53.2175 186.4989 0001312  77.6554 282.4584 15.08830269 64599","TLE_LINE1":"1 49754U 21115AG  23031.43449914  .00001732  00000-0  12693-3 0  9993","PERIAPSIS":"538.868","GP_ID":"224095960","MEAN_ELEMENT_THEORY":"SGP4","EPOCH":"2023-01-31T10:25:40.725696","FILE":"3766475"},{"APOAPSIS":"540.544","SITE":"AFETR","DECAY_DATE":null,"MEAN_ANOMALY":"265.8917","TIME_SYSTEM":"UTC","SEMIMAJOR_AXIS":"6917.892","NORAD_CAT_ID":"49755","REF_FRAME":"TEME","LAUNCH_DATE":"2021-12-02","OBJECT_ID":"2021-115AH","CENTER_NAME":"EARTH","OBJECT_TYPE":"PAYLOAD","ECCENTRICITY":"0.00011380","INCLINATION":"53.2166","RA_OF_ASC_NODE":"196.2259","COUNTRY_CODE":"US","ARG_OF_PERICENTER":"94.2205","MEAN_MOTION_DDOT":"0.0000000000000","MEAN_MOTION":"15.08836139","EPHEMERIS_TYPE":"0","PERIOD":"95.438","MEAN_MOTION_DOT":"0.00000750","OBJECT_NAME":"STARLINK-3210","BSTAR":"0.00006518200000","REV_AT_EPOCH":"6446","TLE_LINE2":"2 49755  53.2166 196.2259 0001138  94.2205 265.8917 15.08836139 64466","TLE_LINE1":"1 49755U 21115AH  23031.49518184  .00000750  00000-0  65182-4 0  9997","PERIAPSIS":"538.970","RCS_SIZE":"LARGE","ELEMENT_SET_NO":"999","CLASSIFICATION_TYPE":"U","EPOCH":"2023-01-31T11:53:03.710976","FILE":"3766475","GP_ID":"224095710","MEAN_ELEMENT_THEORY":"SGP4"},{"MEAN_MOTION":"15.08845419","MEAN_MOTION_DDOT":"0.0000000000000","MEAN_MOTION_DOT":"0.00001528","PERIOD":"95.437","EPHEMERIS_TYPE":"0","BSTAR":"0.00011406000000","OBJECT_NAME":"STARLINK-3207","PERIAPSIS":"538.815","TLE_LINE1":"1 49756U 21115AJ  23031.78313854  .00001528  00000-0  11406-3 0  9990","TLE_LINE2":"2 49756  53.2166 184.9275 0001321  91.3958 268.7185 15.08845419 64646","REV_AT_EPOCH":"6464","CLASSIFICATION_TYPE":"U","ELEMENT_SET_NO":"999","RCS_SIZE":"LARGE","FILE":"3766747","EPOCH":"2023-01-31T18:47:43.169856","MEAN_ELEMENT_THEORY":"SGP4","GP_ID":"224127316","APOAPSIS":"540.643","DECAY_DATE":null,"SITE":"AFETR","TIME_SYSTEM":"UTC","MEAN_ANOMALY":"268.7185","REF_FRAME":"TEME","NORAD_CAT_ID":"49756","SEMIMAJOR_AXIS":"6917.864","CENTER_NAME":"EARTH","OBJECT_ID":"2021-115AJ","LAUNCH_DATE":"2021-12-02","OBJECT_TYPE":"PAYLOAD","INCLINATION":"53.2166","ECCENTRICITY":"0.00013210","ARG_OF_PERICENTER":"91.3958","COUNTRY_CODE":"US","RA_OF_ASC_NODE":"184.9275"},{"MEAN_MOTION":"15.08841846","MEAN_MOTION_DDOT":"0.0000000000000","MEAN_MOTION_DOT":"-0.00000929","PERIOD":"95.437","EPHEMERIS_TYPE":"0","BSTAR":"-0.00004027200000","OBJECT_NAME":"STARLINK-3197","PERIAPSIS":"538.845","TLE_LINE1":"1 49757U 21115AK  23031.77578069 -.00000929  00000-0 -40272-4 0  9991","TLE_LINE2":"2 49757  53.2173 184.9606 0001294  97.2614 262.8526 15.08841846 64640","REV_AT_EPOCH":"6464","CLASSIFICATION_TYPE":"U","ELEMENT_SET_NO":"999","RCS_SIZE":"LARGE","FILE":"3766747","EPOCH":"2023-01-31T18:37:07.451616","MEAN_ELEMENT_THEORY":"SGP4","GP_ID":"224128066","APOAPSIS":"540.635","DECAY_DATE":null,"SITE":"AFETR","TIME_SYSTEM":"UTC","MEAN_ANOMALY":"262.8526","REF_FRAME":"TEME","NORAD_CAT_ID":"49757","SEMIMAJOR_AXIS":"6917.875","CENTER_NAME":"EARTH","OBJECT_ID":"2021-115AK","LAUNCH_DATE":"2021-12-02","OBJECT_TYPE":"PAYLOAD","INCLINATION":"53.2173","ECCENTRICITY":"0.00012940","ARG_OF_PERICENTER":"97.2614","COUNTRY_CODE":"US","RA_OF_ASC_NODE":"184.9606"}];
